STARLINK-2022           
1 47643U 21012Z   24134.35929956  .00004802  00000+0  34111-3 0  9998
2 47643  53.0527 158.3996 0001291 105.7664 254.3467 15.06389814179981
